P/2016 WM48 (Lemmon),e,117.5514,59.8739,35.8762,8.191732,0.0420378,0.78650678,17.8344,04/27.0/2018,2000,g 15.0,4.0
# From MPC109590
C/2016 X1 (Lemmon),e,26.4535,256.4238,224.5845,2456,0.0000081,0.99692029,0.0000,04/29.9988/2019,2000,g  6.0,4.0
# From MPC108594
C/2017 A1 (PANSTARRS),e,49.7918,121.0575,2.0694,80.08959,0.0013751,0.97139778,0.0000,05/17.1483/2017,2000,g 13.0,4.0
# From MPC108594
C/2017 A3 (Elenin),e,98.5213,97.9001,304.1139,43.42525,0.0034442,0.91123759,1.5545,04/27.0/2018,2000,g  9.5,4.0
# From MPC109590
C/2017 AB5 (PANSTARRS),e,32.4311,42.6905,78.3849,18978,0.0000004,0.99951436,0.0000,02/17.6628/2018,2000,g  5.5,4.0
# From MPC109590
C/2017 B3 (LINEAR),h,02/02.3555/2019,54.1806,2.1854,284.7174,1.002215,3.921585,2000,6.0,4.0
# From MPC103847
P/2017 B4 (PANSTARRS),e,20.0584,121.4578,11.0197,4.410520,0.1064068,0.36495152,359.9130,01/05.0/2017,2000,g 14.5,4.0
# From MPC104793
C/2017 C1 (NEOWISE),e,65.7237,357.4391,110.1863,20.75848,0.0104210,0.92768112,4.8260,04/27.0/2018,2000,g 18.0,4.0
# From MPC107685
C/2017 C2 (PANSTARRS),e,118.5904,249.8229,138.7667,99.08067,0.0009994,0.97546916,0.0000,01/21.6226/2017,2000,g 14.0,4.0
# From MPC104793
P/2017 D1 (Fuls),e,20.7400,82.2488,7.6356,4.814116,0.0933102,0.44039726,62.2305,04/27.0/2018,2000,g 14.0,4.0
# From MPC108594
C/2017 D2 (Barros),e,31.2627,331.0390,334.3468,1568,0.0000159,0.99841448,0.0000,07/14.5564/2017,2000,g 11.0,4.0
# From MPC109590
C/2017 D3 (ATLAS),h,04/26.7494/2017,125.5567,186.6161,340.7766,1.001424,4.971712,2000,8.0,4.0
# From MPC105239
P/2017 D4 (PANSTARRS),e,10.4003,265.5422,210.8781,7.521442,0.0477807,0.63228872,28.4455,04/27.0/2018,2000,g 13.0,4.0
# From MPC104794
C/2017 D5 (PANSTARRS),e,131.0479,92.7235,287.8359,113.6303,0.0008137,0.98092631,0.0000,01/08.9134/2017,2000,g 16.0,4.0
# From MPC106346
C/2017 E1 (Borisov),h,04/10.1657/2017,14.5541,142.7161,152.4875,1.002690,0.900469,2000,14.0,4.0
# From MPC109144
C/2017 E2 (Tsuchinshan),e,78.9952,11.5434,89.4224,21.67012,0.0097704,0.89152229,6.9836,04/27.0/2018,2000,g 11.5,4.0
# From MPC109590
C/2017 E3 (PANSTARRS),h,06/07.7320/2017,70.6946,220.7413,334.3638,1.012091,5.928456,2000,6.5,4.0
# From MPC105239
C/2017 E4 (Lovejoy),h,04/23.2960/2017,88.1789,223.2042,87.1306,1.001490,0.493648,2000,17.0,4.0
# From MPC105239
C/2017 E5 (Lemmon),e,122.6451,206.2017,306.7586,372.0655,0.0001373,0.99520634,0.0000,06/10.7105/2016,2000,g 13.0,4.0
# From MPC109144
C/2017 F1 (Lemmon),h,11/30.9918/2017,146.4819,158.7478,64.8199,1.004664,4.499762,2000,10.5,4.0
# From MPC107685
C/2017 F2 (PANSTARRS),h,11/26.8413/2017,42.5072,38.6688,134.9511,1.005488,6.927746,2000,7.5,4.0
# From MPC104794
P/2017 G1 (PANSTARRS),e,4.5434,250.5210,224.3760,7.480170,0.0481767,0.66365614,34.5302,04/27.0/2018,2000,g 13.5,4.0
# From MPC108595
P/2017 G2 (PANSTARRS),e,47.9306,79.7995,105.9269,8.140569,0.0424348,0.65042519,13.4590,04/27.0/2018,2000,g 13.0,4.0
# From MPC109144
C/2017 G3 (PANSTARRS),e,159.0518,279.4825,73.1060,279.7035,0.0002107,0.99073756,0.0000,04/15.0101/2017,2000,g 14.0,4.0
# From MPC109590
C/2017 K1 (PANSTARRS),h,03/14.5937/2018,154.0091,225.6417,4.1897,1.002168,7.285906,2000,7.0,4.0
# From MPC109591
C/2017 K2 (PANSTARRS),h,12/20.9699/2022,87.5474,88.2347,236.0474,1.000365,1.808180,2000,1.5,4.0
# From MPC106346
P/2017 K3 (Gasparovic),e,4.2786,354.3142,253.2992,5.573052,0.0749142,0.58111732,24.7443,04/27.0/2018,2000,g 14.5,4.0
# From MPC108595
C/2017 K4 (ATLAS),e,16.6784,298.8970,15.1118,28.13069,0.0066059,0.90586449,0.7198,04/27.0/2018,2000,g 10.0,4.0
# From MPC107049
C/2017 K5 (PANSTARRS),h,03/22.1019/2020,82.2619,102.3723,171.6940,1.004011,7.680604,2000,7.0,4.0
# From MPC109591
C/2017 K6 (Jacques),e,57.2521,85.0537,303.8375,1138,0.0000257,0.99824018,0.0000,01/03.1346/2018,2000,g 11.0,4.0
# From MPC108595
C/2017 M3 (PANSTARRS),e,77.5037,6.9993,110.3518,173.9690,0.0004295,0.97323119,0.0000,04/28.4509/2017,2000,g 10.5,4.0
# From MPC109591
C/2017 M4 (ATLAS),h,01/18.3296/2019,105.6572,65.8684,167.6506,1.001094,3.251732,2000,6.0,4.0
# From MPC109591
C/2017 M5 (TOTAS),h,06/02.9608/2018,15.8849,216.2634,92.6593,1.003722,5.989478,2000,6.5,4.0
# From MPC109591
C/2017 O1 (ASASSN),e,39.8482,25.8087,20.9043,403.8341,0.0001215,0.99628893,0.0000,10/14.7763/2017,2000,g 11.0,4.0
# From MPC106347
P/2017 P1 (PANSTARRS),e,7.7016,221.3921,122.1430,7.869364,0.0446472,0.30884926,357.7186,04/27.0/2018,2000,g 10.0,4.0
# From MPC107686
C/2017 P2 (PANSTARRS),e,50.0839,165.5457,132.2430,1385,0.0000191,0.99822225,0.0000,12/06.5756/2017,2000,g 10.0,4.0
# From MPC108595
P/2017 R1 (PANSTARRS),e,2.5731,143.6489,178.3828,4.133273,0.1172905,0.19502260,45.0107,04/27.0/2018,2000,g 13.5,4.0
# From MPC108595
C/2017 S2 (PANSTARRS),e,12.6835,62.4276,305.9578,20.44607,0.0106608,0.82322837,2.5664,04/27.0/2018,2000,g 13.0,4.0
# From MPC109591
C/2017 S3 (PANSTARRS),h,08/15.9452/2018,99.0395,171.0383,255.8916,1.000083,0.208435,2000,11.0,4.0
# From MPC108596
P/2017 S5 (ATLAS),e,11.8498,252.3914,99.9063,3.170992,0.1745466,0.31315623,47.6635,04/27.0/2018,2000,g 14.0,4.0
# From MPC109591
C/2017 S6 (Catalina),h,02/26.9361/2018,152.8266,130.8750,134.6891,1.001288,1.542909,2000,12.5,4.0
# From MPC109145
C/2017 S7 (Lemmon),h,05/27.7834/2017,124.2292,262.7909,187.7412,1.002673,7.614243,2000,7.0,4.0
# From MPC109145
P/2017 S8 (PANSTARRS),e,29.8593,191.8067,254.5498,2.775735,0.2131263,0.39357923,18.8336,04/27.0/2018,2000,g 16.0,4.0
# From MPC107050
P/2017 S9 (PANSTARRS),e,14.1386,146.2131,237.8645,3.156363,0.1757615,0.30459966,48.7805,04/27.0/2018,2000,g 17.0,4.0
# From MPC109145
C/2017 T1 (Heinze),h,02/21.7082/2018,96.8344,102.3159,96.9010,1.000080,0.580598,2000,14.5,4.0
# From MPC109591
C/2017 T2 (PANSTARRS),e,57.2345,64.3799,93.0114,26146,0.0000002,0.99993828,0.0000,05/04.8049/2020,2000,g  5.0,4.0
# From MPC109591
C/2017 T3 (ATLAS),e,88.1080,230.0858,246.8874,1390,0.0000190,0.99940610,0.0000,07/19.1506/2018,2000,g 10.0,4.0
# From MPC109145
C/2017 U2 (Fuls),e,95.4225,149.7165,147.7255,10791,0.0000009,0.99937911,0.0000,08/28.0948/2017,2000,g  9.0,4.0
# From MPC109146
P/2017 U3 (PANSTARRS),e,15.9076,165.1421,297.4551,4.935855,0.0898795,0.09961912,327.6525,04/27.0/2018,2000,g 11.0,4.0
# From MPC109146
C/2017 U4 (PANSTARRS),h,09/25.6613/2018,158.2260,245.9521,159.1774,1.003659,7.724037,2000,7.0,4.0
# From MPC109146
C/2017 U5 (PANSTARRS),e,18.9567,163.1117,262.1362,16.92775,0.0141516,0.74439840,1.8258,04/27.0/2018,2000,g 12.0,4.0
# From MPC109591
C/2017 W2 (Leonard),e,98.1825,312.8095,169.1619,13.70835,0.0194190,0.71131532,3.4185,04/27.0/2018,2000,g 11.0,4.0
# From MPC109591
P/2017 W3 (Gibbs),e,18.3160,210.7551,326.4496,7.740377,0.0457679,0.50424205,2.7912,04/27.0/2018,2000,g 10.5,4.0
# From MPC109592
C/2017 X1 (PANSTARRS),e,31.3108,251.1254,283.1185,31.31179,0.0056253,0.85109688,359.7270,04/27.0/2018,2000,g 10.0,4.0
# From MPC109146
C/2017 Y1 (PANSTARRS),e,55.2375,307.5110,134.4385,3154,0.0000056,0.99882121,0.0000,08/31.4296/2017,2000,g 11.5,4.0
# From MPC109146
C/2017 Y2 (PANSTARRS),e,126.0735,61.4843,146.0847,15.89478,0.0155533,0.67401974,343.0102,04/27.0/2018,2000,g  8.0,4.0
# From MPC109592
P/2017 Y3 (Leonard),e,27.5859,153.8722,67.5280,9.858112,0.0318430,0.87062757,2.3800,04/27.0/2018,2000,g 16.5,4.0
# From MPC109592
C/2018 A1 (PANSTARRS),e,53.5612,336.6198,96.3871,25.29427,0.0077477,0.90434989,1.4610,04/27.0/2018,2000,g 12.5,4.0
# From MPC109592
C/2018 A3 (ATLAS),e,139.5622,194.2779,86.4158,501.7435,0.0000877,0.99346886,0.0000,01/12.8196/2019,2000,g  8.5,4.0
# From MPC109592
C/2018 A4 (PANSTARRS),e,3.1483,97.6263,356.1113,12.40427,0.0225604,0.80625045,359.5099,04/27.0/2018,2000,g 14.0,4.0
# From MPC109147
P/2018 A5 (PANSTARRS),e,23.5775,87.8306,359.6767,5.646309,0.0734611,0.52290426,15.8083,04/27.0/2018,2000,g 15.0,4.0
# From MPC109592
C/2018 A6 (Gibbs),e,76.9575,340.3834,264.5035,15.35771,0.0163762,0.80346310,352.7420,04/27.0/2018,2000,g  9.0,4.0
# From MPC109592
C/2018 B1 (Lemmon),h,03/30.5508/2018,162.4232,133.1600,68.3535,1.003071,5.116951,2000,9.0,4.0
# From MPC109592
P/2018 C1 (Lemmon-Read),e,5.1339,270.4538,234.2996,5.575843,0.0748580,0.53444475,4.5303,04/27.0/2018,2000,g 13.5,4.0
# From MPC109592
C/2018 C2 (Lemmon),h,06/02.2228/2018,34.4534,91.1418,134.1352,1.001782,1.956566,2000,13.0,4.0
# From MPC109592
C/2018 E1 (ATLAS),e,72.4797,146.8407,299.4723,54.48191,0.0024509,0.95034257,0.0237,04/27.0/2018,2000,g 10.5,4.0
# From MPEC 2018-G92
C/2018 E2 (Barros),e,97.7614,67.1793,277.4748,418.6923,0.0001150,0.99063774,0.0000,12/23.6186/2017,2000,g 10.5,4.0
# From MPEC 2018-H55
C/2018 EF9 (Lemmon),e,84.7068,172.5844,72.5900,1045,0.0000292,0.99850931,0.0000,05/23.0863/2018,2000,g 18.0,2.0
# From MPC109593
C/2018 F1 (Grauer),e,46.0834,177.3056,71.6150,318.4553,0.0001734,0.99060125,0.0000,12/14.0985/2018,2000,g 11.5,4.0
# From MPC109593
C/2018 F3 (Johnson),p,08/14.9578/2017,105.4799,292.7513,2.474842,173.0376,2000,13.0,4.0
# From MPEC 2018-H93
P/2018 H2 (PANSTARRS),e,7.3889,68.4541,120.2390,4.405762,0.1065792,0.53990666,9.9673,04/27.0/2018,2000,g 16.6,2.0
# From AJ 98, 1083
1P/Halley,e,162.3368,57.9836,110.8995,17.85943,0.0130588,0.96694460,154.0450,04/27.0/2018,2000,g  5.5,3.2
# From MPC105240
2P/Encke,e,11.7749,334.5625,186.5654,2.214589,0.2990642,0.84823280,123.4940,04/27.0/2018,2000,g 11.5,6.0
# From MPC 92275
4P/Faye,e,8.7762,197.7371,204.1424,3.764209,0.1349564,0.59338339,193.7233,04/27.0/2018,2000,g  8.0,6.0
# From MPC 95735
6P/d'Arrest,e,19.4932,138.9200,178.0595,3.500373,0.1504986,0.61174019,173.3099,04/27.0/2018,2000,g  7.5,16.0
# From MPC 92984
7P/Pons-Winnecke,e,22.3569,93.3804,172.5097,3.417624,0.1559975,0.63826584,184.3576,04/27.0/2018,2000,g 10.0,6.0
# From MPC 75715
8P/Tuttle,e,54.9267,270.2270,207.5365,5.693040,0.0725584,0.81995576,271.5348,04/27.0/2018,2000,g  8.0,8.0
# From MPC 84319
9P/Tempel,e,10.4750,68.7392,179.2562,3.146830,0.1765607,0.50972485,111.6373,04/27.0/2018,2000,g  5.5,10.0
# From MPC 92984
10P/Tempel,e,12.0346,117.7956,195.4925,3.062404,0.1839121,0.53775464,164.5340,04/27.0/2018,2000,g  5.0,10.0
# From MPC105240
